{
    "links": {
        "self": "http://www.neowsapp.com/rest/v1/neo/3682529?api_key=iIulBulltgU6a56xZRHN4H3l9WmuAYTsLGpBGhQ2"
    },
    "id": "3682529",
    "neo_reference_id": "3682529",
    "name": "(2014 QW33)",
    "designation": "2014 QW33",
    "nasa_jpl_url": "http://ssd.jpl.nasa.gov/sbdb.cgi?sstr=3682529",
    "absolute_magnitude_h": 23.4,
    "estimated_diameter": {
        "kilometers": {
            "estimated_diameter_min": 0.0555334912,
            "estimated_diameter_max": 0.1241766613
        },
        "meters": {
            "estimated_diameter_min": 55.5334911581,
            "estimated_diameter_max": 124.1766612574
        },
        "miles": {
            "estimated_diameter_min": 0.0345069009,
            "estimated_diameter_max": 0.0771597762
        },
        "feet": {
            "estimated_diameter_min": 182.1964991311,
            "estimated_diameter_max": 407.4037573197
        }
    },
    "is_potentially_hazardous_asteroid": false,
    "close_approach_data": [
        {
            "close_approach_date": "2002-04-07",
            "close_approach_date_full": "2002-Apr-07 14:29",
            "epoch_date_close_approach": 1018189740000,
            "relative_velocity": {
                "kilometers_per_second": "9.9996879854",
                "kilometers_per_hour": "35998.8767473278",
                "miles_per_hour": "22368.3020544715"
            },
            "miss_distance": {
                "astronomical": "0.0968900521",
                "lunar": "37.6902302669",
                "kilometers": "14494545.418349027",
                "miles": "9006492.8863374926"
            },
            "orbiting_body": "Mars"
        },
        {
            "close_approach_date": "2014-09-16",
            "close_approach_date_full": "2014-Sep-16 06:07",
            "epoch_date_close_approach": 1410847620000,
            "relative_velocity": {
                "kilometers_per_second": "6.5200267659",
                "kilometers_per_hour": "23472.0963572098",
                "miles_per_hour": "14584.6478726229"
            },
            "miss_distance": {
                "astronomical": "0.1419328573",
                "lunar": "55.2118814897",
                "kilometers": "21232853.135093951",
                "miles": "13193483.1482044838"
            },
            "orbiting_body": "Earth"
        },
        {
            "close_approach_date": "2016-10-26",
            "close_approach_date_full": "2016-Oct-26 06:18",
            "epoch_date_close_approach": 1477462680000,
            "relative_velocity": {
                "kilometers_per_second": "3.0353288917",
                "kilometers_per_hour": "10927.1840101671",
                "miles_per_hour": "6789.727197873"
            },
            "miss_distance": {
                "astronomical": "1.4337173676",
                "lunar": "557.7160559964",
                "kilometers": "214481064.374967012",
                "miles": "133272353.4814562856"
            },
            "orbiting_body": "Juptr"
        }
    ],
    "orbital_data": {
        "orbit_id": "9",
        "orbit_determination_date": "2017-04-06 08:39:14",
        "first_observation_date": "2014-08-19",
        "last_observation_date": "2014-10-23",
        "data_arc_in_days": 65,
        "observations_used": 24,
        "orbit_uncertainty": "6",
        "minimum_orbit_intersection": ".145901",
        "jupiter_tisserand_invariant": "3.139",
        "epoch_osculation": "2459000.5",
        "eccentricity": ".5760668150486827",
        "semi_major_axis": "2.621017950774005",
        "inclination": "5.971410219056239",
        "ascending_node_longitude": "298.8924966309228",
        "orbital_period": "1549.899077893395",
        "perihelion_distance": "1.111136487686199",
        "perihelion_argument": "66.68163807165479",
        "aphelion_distance": "4.130899413861812",
        "perihelion_time": "2458486.498172919302",
        "mean_anomaly": "119.3888430468365",
        "mean_motion": ".2322731880641595",
        "equinox": "J2000",
        "orbit_class": {
            "orbit_class_type": "AMO",
            "orbit_class_description": "Near-Earth asteroid orbits similar to that of 1221 Amor",
            "orbit_class_range": "1.017 AU < q (perihelion) < 1.3 AU"
        }
    },
    "is_sentry_object": false
}